TIANQI-3G_L_00007001-01
1 10000U 22902XR  26075.70052083  .00000000  00000+0  00000-0 0  9990
2 10000  45.0000   0.0000 0000000   0.0000   0.0000 12.63142618    17
TIANQI-3G_L_00007001-02
1 10001U 25901CP  26075.70052083  .00000000  00000+0  00000-0 0  9993
2 10001  45.0000   0.0000 0000000   0.0000  45.0000 12.63142618    17
TIANQI-3G_L_00007001-03
1 10002U 24346YL  26075.70052083  .00000000  00000+0  00000-0 0  9996
2 10002  45.0000   0.0000 0000000   0.0000  90.0000 12.63142618    18
TIANQI-3G_L_00007001-04
1 10003U 25725SJ  26075.70052083  .00000000  00000+0  00000-0 0  9999
2 10003  45.0000   0.0000 0000000   0.0000 135.0000 12.63142618    19
TIANQI-3G_L_00007001-05
1 10004U 25992AK  26075.70052083  .00000000  00000+0  00000-0 0  9996
2 10004  45.0000   0.0000 0000000   0.0000 180.0000 12.63142618    10
TIANQI-3G_L_00007001-06
1 10005U 23245IK  26075.70052083  .00000000  00000+0  00000-0 0  9996
2 10005  45.0000   0.0000 0000000   0.0000 225.0000 12.63142618    11
TIANQI-3G_L_00007001-07
1 10006U 23555VV  26075.70052083  .00000000  00000+0  00000-0 0  9991
2 10006  45.0000   0.0000 0000000   0.0000 270.0000 12.63142618    12
TIANQI-3G_L_00007001-08
1 10007U 22118UE  26075.70052083  .00000000  00000+0  00000-0 0  9996
2 10007  45.0000   0.0000 0000000   0.0000 315.0000 12.63142618    13
TIANQI-3G_L_00007002-01
1 10008U 26096KO  26075.70052083  .00000000  00000+0  00000-0 0  9996
2 10008  45.0000  45.0000 0000000   0.0000  22.5000 12.63142618    13
TIANQI-3G_L_00007002-02
1 10009U 22582CP  26075.70052083  .00000000  00000+0  00000-0 0  9993
2 10009  45.0000  45.0000 0000000   0.0000  67.5000 12.63142618    13
TIANQI-3G_L_00007002-03
1 10010U 23976GX  26075.70052083  .00000000  00000+0  00000-0 0  9993
2 10010  45.0000  45.0000 0000000   0.0000 112.5000 12.63142618    16
TIANQI-3G_L_00007002-04
1 10011U 25969DD  26075.70052083  .00000000  00000+0  00000-0 0  9998
2 10011  45.0000  45.0000 0000000   0.0000 157.5000 12.63142618    16
TIANQI-3G_L_00007002-05
1 10012U 22926PR  26075.70052083  .00000000  00000+0  00000-0 0  9999
2 10012  45.0000  45.0000 0000000   0.0000 202.5000 12.63142618    18
TIANQI-3G_L_00007002-06
1 10013U 26942YY  26075.70052083  .00000000  00000+0  00000-0 0  9992
2 10013  45.0000  45.0000 0000000   0.0000 247.5000 12.63142618    18
TIANQI-3G_L_00007002-07
1 10014U 26253RC  26075.70052083  .00000000  00000+0  00000-0 0  9998
2 10014  45.0000  45.0000 0000000   0.0000 292.5000 12.63142618    19
TIANQI-3G_L_00007002-08
1 10015U 26354VQ  26075.70052083  .00000000  00000+0  00000-0 0  9991
2 10015  45.0000  45.0000 0000000   0.0000 337.5000 12.63142618    10
TIANQI-3G_L_00007003-01
1 10016U 22902OL  26075.70052083  .00000000  00000+0  00000-0 0  9997
2 10016  45.0000  90.0000 0000000   0.0000  45.0000 12.63142618    12
TIANQI-3G_L_00007003-02
1 10017U 26254GM  26075.70052083  .00000000  00000+0  00000-0 0  9992
2 10017  45.0000  90.0000 0000000   0.0000  90.0000 12.63142618    13
TIANQI-3G_L_00007003-03
1 10018U 22399HW  26075.70052083  .00000000  00000+0  00000-0 0  9999
2 10018  45.0000  90.0000 0000000   0.0000 135.0000 12.63142618    14
TIANQI-3G_L_00007003-04
1 10019U 26182I   26075.70052083  .00000000  00000+0  00000-0 0  9994
2 10019  45.0000  90.0000 0000000   0.0000 180.0000 12.63142618    15
TIANQI-3G_L_00007003-05
1 10020U 22990BP  26075.70052083  .00000000  00000+0  00000-0 0  9999
2 10020  45.0000  90.0000 0000000   0.0000 225.0000 12.63142618    17
TIANQI-3G_L_00007003-06
1 10021U 24624MD  26075.70052083  .00000000  00000+0  00000-0 0  9996
2 10021  45.0000  90.0000 0000000   0.0000 270.0000 12.63142618    18
TIANQI-3G_L_00007003-07
1 10022U 22405JE  26075.70052083  .00000000  00000+0  00000-0 0  9992
2 10022  45.0000  90.0000 0000000   0.0000 315.0000 12.63142618    19
TIANQI-3G_L_00007003-08
1 10023U 22754DN  26075.70052083  .00000000  00000+0  00000-0 0  9990
2 10023  45.0000  90.0000 0000000   0.0000   0.0000 12.63142618    11
TIANQI-3G_L_00007004-01
1 10024U 22083CJ  26075.70052083  .00000000  00000+0  00000-0 0  9996
2 10024  45.0000 135.0000 0000000   0.0000  67.5000 12.63142618    10
TIANQI-3G_L_00007004-02
1 10025U 23783DK  26075.70052083  .00000000  00000+0  00000-0 0  9995
2 10025  45.0000 135.0000 0000000   0.0000 112.5000 12.63142618    12
TIANQI-3G_L_00007004-03
1 10026U 23971GE  26075.70052083  .00000000  00000+0  00000-0 0  9995
2 10026  45.0000 135.0000 0000000   0.0000 157.5000 12.63142618    12
TIANQI-3G_L_00007004-04
1 10027U 26742UO  26075.70052083  .00000000  00000+0  00000-0 0  9995
2 10027  45.0000 135.0000 0000000   0.0000 202.5000 12.63142618    14
TIANQI-3G_L_00007004-05
1 10028U 24477FY  26075.70052083  .00000000  00000+0  00000-0 0  9999
2 10028  45.0000 135.0000 0000000   0.0000 247.5000 12.63142618    14
TIANQI-3G_L_00007004-06
1 10029U 26995HM  26075.70052083  .00000000  00000+0  00000-0 0  9997
2 10029  45.0000 135.0000 0000000   0.0000 292.5000 12.63142618    15
TIANQI-3G_L_00007004-07
1 10030U 25026IK  26075.70052083  .00000000  00000+0  00000-0 0  9993
2 10030  45.0000 135.0000 0000000   0.0000 337.5000 12.63142618    17
TIANQI-3G_L_00007004-08
1 10031U 23253YI  26075.70052083  .00000000  00000+0  00000-0 0  9994
2 10031  45.0000 135.0000 0000000   0.0000  22.5000 12.63142618    19
TIANQI-3G_L_00007005-01
1 10032U 23440SO  26075.70052083  .00000000  00000+0  00000-0 0  9993
2 10032  45.0000 180.0000 0000000   0.0000  90.0000 12.63142618    10
TIANQI-3G_L_00007005-02
1 10033U 22946NH  26075.70052083  .00000000  00000+0  00000-0 0  9994
2 10033  45.0000 180.0000 0000000   0.0000 135.0000 12.63142618    11
TIANQI-3G_L_00007005-03
1 10034U 24246OK  26075.70052083  .00000000  00000+0  00000-0 0  9990
2 10034  45.0000 180.0000 0000000   0.0000 180.0000 12.63142618    12
TIANQI-3G_L_00007005-04
1 10035U 22321EC  26075.70052083  .00000000  00000+0  00000-0 0  9993
2 10035  45.0000 180.0000 0000000   0.0000 225.0000 12.63142618    13
TIANQI-3G_L_00007005-05
1 10036U 26891MU  26075.70052083  .00000000  00000+0  00000-0 0  9990
2 10036  45.0000 180.0000 0000000   0.0000 270.0000 12.63142618    14
TIANQI-3G_L_00007005-06
1 10037U 22235UF  26075.70052083  .00000000  00000+0  00000-0 0  9999
2 10037  45.0000 180.0000 0000000   0.0000 315.0000 12.63142618    15
TIANQI-3G_L_00007005-07
1 10038U 25504U   26075.70052083  .00000000  00000+0  00000-0 0  9992
2 10038  45.0000 180.0000 0000000   0.0000   0.0000 12.63142618    17
TIANQI-3G_L_00007005-08
1 10039U 25760VC  26075.70052083  .00000000  00000+0  00000-0 0  9997
2 10039  45.0000 180.0000 0000000   0.0000  45.0000 12.63142618    17
TIANQI-3G_L_00007006-01
1 10040U 22084ID  26075.70052083  .00000000  00000+0  00000-0 0  9995
2 10040  45.0000 225.0000 0000000   0.0000 112.5000 12.63142618    19
TIANQI-3G_L_00007006-02
1 10041U 26999CJ  26075.70052083  .00000000  00000+0  00000-0 0  9995
2 10041  45.0000 225.0000 0000000   0.0000 157.5000 12.63142618    19
TIANQI-3G_L_00007006-03
1 10042U 26644CM  26075.70052083  .00000000  00000+0  00000-0 0  9993
2 10042  45.0000 225.0000 0000000   0.0000 202.5000 12.63142618    11
TIANQI-3G_L_00007006-04
1 10043U 26438TI  26075.70052083  .00000000  00000+0  00000-0 0  9995
2 10043  45.0000 225.0000 0000000   0.0000 247.5000 12.63142618    11
TIANQI-3G_L_00007006-05
1 10044U 26238RG  26075.70052083  .00000000  00000+0  00000-0 0  9994
2 10044  45.0000 225.0000 0000000   0.0000 292.5000 12.63142618    12
TIANQI-3G_L_00007006-06
1 10045U 23682SN  26075.70052083  .00000000  00000+0  00000-0 0  9995
2 10045  45.0000 225.0000 0000000   0.0000 337.5000 12.63142618    13
TIANQI-3G_L_00007006-07
1 10046U 26314RT  26075.70052083  .00000000  00000+0  00000-0 0  9991
2 10046  45.0000 225.0000 0000000   0.0000  22.5000 12.63142618    15
TIANQI-3G_L_00007006-08
1 10047U 25089AL  26075.70052083  .00000000  00000+0  00000-0 0  9990
2 10047  45.0000 225.0000 0000000   0.0000  67.5000 12.63142618    15
TIANQI-3G_L_00007007-01
1 10048U 25988SU  26075.70052083  .00000000  00000+0  00000-0 0  9999
2 10048  45.0000 270.0000 0000000   0.0000 135.0000 12.63142618    17
TIANQI-3G_L_00007007-02
1 10049U 24171MT  26075.70052083  .00000000  00000+0  00000-0 0  9993
2 10049  45.0000 270.0000 0000000   0.0000 180.0000 12.63142618    18
TIANQI-3G_L_00007007-03
1 10050U 25174ZD  26075.70052083  .00000000  00000+0  00000-0 0  9999
2 10050  45.0000 270.0000 0000000   0.0000 225.0000 12.63142618    10
TIANQI-3G_L_00007007-04
1 10051U 26021GG  26075.70052083  .00000000  00000+0  00000-0 0  9992
2 10051  45.0000 270.0000 0000000   0.0000 270.0000 12.63142618    11
TIANQI-3G_L_00007007-05
1 10052U 22872HX  26075.70052083  .00000000  00000+0  00000-0 0  9993
2 10052  45.0000 270.0000 0000000   0.0000 315.0000 12.63142618    12
TIANQI-3G_L_00007007-06
1 10053U 24296NZ  26075.70052083  .00000000  00000+0  00000-0 0  9996
2 10053  45.0000 270.0000 0000000   0.0000   0.0000 12.63142618    14
TIANQI-3G_L_00007007-07
1 10054U 25158FD  26075.70052083  .00000000  00000+0  00000-0 0  9995
2 10054  45.0000 270.0000 0000000   0.0000  45.0000 12.63142618    14
TIANQI-3G_L_00007007-08
1 10055U 26785DE  26075.70052083  .00000000  00000+0  00000-0 0  9993
2 10055  45.0000 270.0000 0000000   0.0000  90.0000 12.63142618    15
TIANQI-3G_L_00007008-01
1 10056U 26207YI  26075.70052083  .00000000  00000+0  00000-0 0  9993
2 10056  45.0000 315.0000 0000000   0.0000 157.5000 12.63142618    15
TIANQI-3G_L_00007008-02
1 10057U 26438OC  26075.70052083  .00000000  00000+0  00000-0 0  9990
2 10057  45.0000 315.0000 0000000   0.0000 202.5000 12.63142618    17
TIANQI-3G_L_00007008-03
1 10058U 23321HQ  26075.70052083  .00000000  00000+0  00000-0 0  9999
2 10058  45.0000 315.0000 0000000   0.0000 247.5000 12.63142618    17
TIANQI-3G_L_00007008-04
1 10059U 23910XK  26075.70052083  .00000000  00000+0  00000-0 0  9994
2 10059  45.0000 315.0000 0000000   0.0000 292.5000 12.63142618    18
TIANQI-3G_L_00007008-05
1 10060U 24313PB  26075.70052083  .00000000  00000+0  00000-0 0  9994
2 10060  45.0000 315.0000 0000000   0.0000 337.5000 12.63142618    10
TIANQI-3G_L_00007008-06
1 10061U 22981AD  26075.70052083  .00000000  00000+0  00000-0 0  9994
2 10061  45.0000 315.0000 0000000   0.0000  22.5000 12.63142618    12
TIANQI-3G_L_00007008-07
1 10062U 23383ET  26075.70052083  .00000000  00000+0  00000-0 0  9992
2 10062  45.0000 315.0000 0000000   0.0000  67.5000 12.63142618    12
TIANQI-3G_L_00007008-08
1 10063U 23951IH  26075.70052083  .00000000  00000+0  00000-0 0  9994
2 10063  45.0000 315.0000 0000000   0.0000 112.5000 12.63142618    14
